{
  "type": "FeatureCollection",
  "features": [
    {
      "type": "Feature",
      "properties": {
        "norad_id": 15362,
        "name": "NOVA 3",
        "group": "nnss",
        "lat": -30.384518363098753,
        "lon": -99.55066576639801,
        "alt_km": 1192.2626564683142,
        "timestamp": "2025-12-11T13:55:02.433616+00:00",
        "meta_object_name": "NOVA 3",
        "meta_object_id": "1984-110A",
        "meta_epoch": "2025-12-11T07:42:45.708768",
        "meta_mean_motion": 13.23044425,
        "meta_eccentricity": 0.00305919,
        "meta_inclination": 90.1224,
        "meta_ra_of_asc_node": 80.5181,
        "meta_arg_of_pericenter": 335.9651,
        "meta_mean_anomaly": 83.964,
        "meta_ephemeris_type": 0,
        "meta_classification_type": "U",
        "meta_norad_cat_id": 15362,
        "meta_element_set_no": 999,
        "meta_rev_at_epoch": 98680,
        "meta_bstar": 0.00025953457,
        "meta_mean_motion_dot": 1.18e-06,
        "meta_mean_motion_ddot": 0,
        "tle_line1": "1 15362U 84110A   25345.32136237  .00000118  00000+0  25953-3 0  9993",
        "tle_line2": "2 15362  90.1224  80.5181 0030591 335.9651  83.9640 13.23044425986809"
      },
      "geometry": {
        "type": "Point",
        "coordinates": [
          -99.55066576639801,
          -30.384518363098753
        ]
      }
    },
    {
      "type": "Feature",
      "properties": {
        "norad_id": 15935,
        "name": "OSCAR 30",
        "group": "nnss",
        "lat": -58.01948060056872,
        "lon": -80.43628834942115,
        "alt_km": 1241.5787285575761,
        "timestamp": "2025-12-11T13:55:02.433627+00:00",
        "meta_object_name": "OSCAR 30",
        "meta_object_id": "1985-066A",
        "meta_epoch": "2025-12-11T07:36:51.608736",
        "meta_mean_motion": 13.36078138,
        "meta_eccentricity": 0.01694332,
        "meta_inclination": 90.1649,
        "meta_ra_of_asc_node": 99.8237,
        "meta_arg_of_pericenter": 87.8767,
        "meta_mean_anomaly": 326.6656,
        "meta_ephemeris_type": 0,
        "meta_classification_type": "U",
        "meta_norad_cat_id": 15935,
        "meta_element_set_no": 999,
        "meta_rev_at_epoch": 96434,
        "meta_bstar": 0.00026006886,
        "meta_mean_motion_dot": 1.55e-06,
        "meta_mean_motion_ddot": 0,
        "tle_line1": "1 15935U 85066A   25345.31726399  .00000155  00000+0  26007-3 0  9995",
        "tle_line2": "2 15935  90.1649  99.8237 0169433  87.8767 326.6656 13.36078138964341"
      },
      "geometry": {
        "type": "Point",
        "coordinates": [
          -80.43628834942115,
          -58.01948060056872
        ]
      }
    },
    {
      "type": "Feature",
      "properties": {
        "norad_id": 15936,
        "name": "OSCAR 24",
        "group": "nnss",
        "lat": -48.36730374517429,
        "lon": 92.48628980635773,
        "alt_km": 1231.1366749248718,
        "timestamp": "2025-12-11T13:55:02.433638+00:00",
        "meta_object_name": "OSCAR 24",
        "meta_object_id": "1985-066B",
        "meta_epoch": "2025-12-11T07:14:08.856096",
        "meta_mean_motion": 13.3593556,
        "meta_eccentricity": 0.01705087,
        "meta_inclination": 90.1789,
        "meta_ra_of_asc_node": 92.28,
        "meta_arg_of_pericenter": 94.3565,
        "meta_mean_anomaly": 320.4437,
        "meta_ephemeris_type": 0,
        "meta_classification_type": "U",
        "meta_norad_cat_id": 15936,
        "meta_element_set_no": 999,
        "meta_rev_at_epoch": 96624,
        "meta_bstar": 0.00021093226,
        "meta_mean_motion_dot": 1.27e-06,
        "meta_mean_motion_ddot": 0,
        "tle_line1": "1 15936U 85066B   25345.30149139  .00000127  00000+0  21093-3 0  9995",
        "tle_line2": "2 15936  90.1789  92.2800 0170508  94.3565 320.4437 13.35935560966244"
      },
      "geometry": {
        "type": "Point",
        "coordinates": [
          92.48628980635773,
          -48.36730374517429
        ]
      }
    },
    {
      "type": "Feature",
      "properties": {
        "norad_id": 17070,
        "name": "POLAR BEAR",
        "group": "nnss",
        "lat": -15.394102907952428,
        "lon": -176.28526916453032,
        "alt_km": 1007.786854849558,
        "timestamp": "2025-12-11T13:55:02.433649+00:00",
        "meta_object_name": "POLAR BEAR",
        "meta_object_id": "1986-088A",
        "meta_epoch": "2025-12-11T02:21:33.969312",
        "meta_mean_motion": 13.75250284,
        "meta_eccentricity": 0.00408727,
        "meta_inclination": 89.6175,
        "meta_ra_of_asc_node": 183.8395,
        "meta_arg_of_pericenter": 123.9989,
        "meta_mean_anomaly": 358.2379,
        "meta_ephemeris_type": 0,
        "meta_classification_type": "U",
        "meta_norad_cat_id": 17070,
        "meta_element_set_no": 999,
        "meta_rev_at_epoch": 95956,
        "meta_bstar": 0.00014201989,
        "meta_mean_motion_dot": 1.48e-06,
        "meta_mean_motion_ddot": 0,
        "tle_line1": "1 17070U 86088A   25345.09830983  .00000148  00000+0  14202-3 0  9998",
        "tle_line2": "2 17070  89.6175 183.8395 0040872 123.9989 358.2379 13.75250284959560"
      },
      "geometry": {
        "type": "Point",
        "coordinates": [
          -176.28526916453032,
          -15.394102907952428
        ]
      }
    },
    {
      "type": "Feature",
      "properties": {
        "norad_id": 18361,
        "name": "OSCAR 27",
        "group": "nnss",
        "lat": 9.612358598194705,
        "lon": 79.16559140739294,
        "alt_km": 1153.3548759761106,
        "timestamp": "2025-12-11T13:55:02.433659+00:00",
        "meta_object_name": "OSCAR 27",
        "meta_object_id": "1987-080A",
        "meta_epoch": "2025-12-11T06:43:35.862816",
        "meta_mean_motion": 13.44906365,
        "meta_eccentricity": 0.01027925,
        "meta_inclination": 90.3742,
        "meta_ra_of_asc_node": 79.2178,
        "meta_arg_of_pericenter": 228.0163,
        "meta_mean_anomaly": 131.2195,
        "meta_ephemeris_type": 0,
        "meta_classification_type": "U",
        "meta_norad_cat_id": 18361,
        "meta_element_set_no": 999,
        "meta_rev_at_epoch": 87537,
        "meta_bstar": 0.00027240869,
        "meta_mean_motion_dot": 1.72e-06,
        "meta_mean_motion_ddot": 0,
        "tle_line1": "1 18361U 87080A   25345.28027619  .00000172  00000+0  27241-3 0  9994",
        "tle_line2": "2 18361  90.3742  79.2178 0102792 228.0163 131.2195 13.44906365875376"
      },
      "geometry": {
        "type": "Point",
        "coordinates": [
          79.16559140739294,
          9.612358598194705
        ]
      }
    },
    {
      "type": "Feature",
      "properties": {
        "norad_id": 18362,
        "name": "OSCAR 29",
        "group": "nnss",
        "lat": 23.876105237359145,
        "lon": 79.52149367226677,
        "alt_km": 1145.1138496604826,
        "timestamp": "2025-12-11T13:55:02.433670+00:00",
        "meta_object_name": "OSCAR 29",
        "meta_object_id": "1987-080B",
        "meta_epoch": "2025-12-11T06:55:32.035008",
        "meta_mean_motion": 13.44448075,
        "meta_eccentricity": 0.01038522,
        "meta_inclination": 90.3753,
        "meta_ra_of_asc_node": 79.6768,
        "meta_arg_of_pericenter": 251.3776,
        "meta_mean_anomaly": 162.5523,
        "meta_ephemeris_type": 0,
        "meta_classification_type": "U",
        "meta_norad_cat_id": 18362,
        "meta_element_set_no": 999,
        "meta_rev_at_epoch": 87490,
        "meta_bstar": 0.00023756513,
        "meta_mean_motion_dot": 1.5e-06,
        "meta_mean_motion_ddot": 0,
        "tle_line1": "1 18362U 87080B   25345.28856522  .00000150  00000+0  23757-3 0  9992",
        "tle_line2": "2 18362  90.3753  79.6768 0103852 251.3776 162.5523 13.44448075874904"
      },
      "geometry": {
        "type": "Point",
        "coordinates": [
          79.52149367226677,
          23.876105237359145
        ]
      }
    },
    {
      "type": "Feature",
      "properties": {
        "norad_id": 19070,
        "name": "OSCAR 23",
        "group": "nnss",
        "lat": -49.58138753181716,
        "lon": -164.0208513892464,
        "alt_km": 1062.1564175087315,
        "timestamp": "2025-12-11T13:55:02.433680+00:00",
        "meta_object_name": "OSCAR 23",
        "meta_object_id": "1988-033A",
        "meta_epoch": "2025-12-11T04:05:25.893312",
        "meta_mean_motion": 13.27786819,
        "meta_eccentricity": 0.01894001,
        "meta_inclination": 90.3214,
        "meta_ra_of_asc_node": 16.344,
        "meta_arg_of_pericenter": 184.2871,
        "meta_mean_anomaly": 247.6118,
        "meta_ephemeris_type": 0,
        "meta_classification_type": "U",
        "meta_norad_cat_id": 19070,
        "meta_element_set_no": 999,
        "meta_rev_at_epoch": 82232,
        "meta_bstar": 0.00020977889,
        "meta_mean_motion_dot": 1.13e-06,
        "meta_mean_motion_ddot": 0,
        "tle_line1": "1 19070U 88033A   25345.17043858  .00000113  00000+0  20978-3 0  9997",
        "tle_line2": "2 19070  90.3214  16.3440 0189400 184.2871 247.6118 13.27786819822327"
      },
      "geometry": {
        "type": "Point",
        "coordinates": [
          -164.0208513892464,
          -49.58138753181716
        ]
      }
    }
  ]
}